ORBCOMM-X               
1 21576U 91050C   25324.63559207  .00000394  00000+0  12923-3 0  9994
2 21576  98.3260  27.9100 0004765  79.1222 281.0504 14.43409456804681
ORBCOMM FM01            
1 23545U 95017A   25324.44058519  .00009403  00000+0  91847-3 0  9990
2 23545  69.9642  43.8881 0001729   0.9949 359.1210 14.92644785635802
ORBCOMM FM02            
1 23546U 95017B   25324.67160367  .00010043  00000+0  94577-3 0  9996
2 23546  69.9649  62.0625 0002565  36.8879 323.2454 14.94068495635507
ORBCOMM FM08            
1 25112U 97084A   25324.52039264  .00001906  00000+0  56450-3 0  9994
2 25112  45.0143 337.0742 0008049 309.4979  50.5161 14.46473304464006
ORBCOMM FM10            
1 25113U 97084B   25324.52554081  .00001666  00000+0  50082-3 0  9992
2 25113  45.0157 339.7148 0006982 282.2024  77.8045 14.46230235639140
ORBCOMM FM11            
1 25114U 97084C   25323.79762776  .00001700  00000+0  51304-3 0  9990
2 25114  45.0141 344.1319 0007779 279.9738  80.0236 14.45966862463991
ORBCOMM FM12            
1 25115U 97084D   25324.37974735  .00001644  00000+0  49719-3 0  9990
2 25115  45.0147 341.0713 0006876 280.2180  79.7896 14.45993918463871
ORBCOMM FM09            
1 25116U 97084E   25324.49560044  .00001464  00000+0  44849-3 0  9997
2 25116  45.0151 341.6148 0008054 272.9030  87.0899 14.45842963464090
